0 ARIANE 1 DEB
1 19857U 85056P   13281.03370746  .00000747  00000-0  14482-1 0  4701
2 19857 007.1865 324.4592 7114412 293.3551 009.5488 02.28839428196619
0 ARIANE 1 DEB
1 19857U 85056P   13281.10988457  .00001461  00000-0  26916-1 0  4713
2 19857 007.1857 324.4815 7115157 293.3579 072.3001 02.28837276196613
0 ARIANE 1 DEB
1 19857U 85056P   13282.41747521  .00000801  00000-0  15027-1 0  4722
2 19857 007.1828 324.0283 7115105 294.2888 069.5151 02.28833999196647
0 ARIANE 1 DEB
1 19857U 85056P   13286.27678044  .00000810  00000-0  15027-1 0  4734
2 19857 007.1760 322.6303 7116424 297.1008 008.9482 02.28847757196731
0 ARIANE 1 DEB
1 19857U 85056P   13290.64547275  .00000929  00000-0  16376-1 0  4752
2 19857 007.1653 321.2042 7115102 300.1131 008.2034 02.28854458196823
0 ARIANE 1 DEB
1 19857U 85056P   13290.64549742  .00000668  00000-0  15027-1 0  4744
2 19857 007.1668 321.1561 7112912 300.1757 008.2222 02.28854711196836
0 ARIANE 1 DEB
1 19857U 85056P   13290.65235829  .00001968  00000-0  37415-1 0  4753
2 19857 007.1634 321.2094 7115049 300.1104 013.9012 02.28872008196830
0 ARIANE 1 DEB
1 19857U 85056P   13293.26648091  .00001938  00000-0  37415-1 0  4760
2 19857 007.1572 320.2196 7114138 302.0615 007.6108 02.28864305196892
0 ARIANE 1 DEB
1 19857U 85056P   13293.68194539  .00001070  00000-0  20869-1 0  4772
2 19857 007.1536 320.1996 7117035 302.2382 349.9120 02.28863979196893
